[{"OBJECT_NAME":"HULIANWANG DIGUI-144","OBJECT_ID":"2026-007H","EPOCH":"2026-03-05T12:00:14.067648","MEAN_MOTION":13.42454105,"ECCENTRICITY":0.00041465,"INCLINATION":50.0071,"RA_OF_ASC_NODE":97.8502,"ARG_OF_PERICENTER":13.3472,"MEAN_ANOMALY":346.7515,"EPHEMERIS_TYPE":0,"CLASSIFICATION_TYPE":"U","NORAD_CAT_ID":67442,"ELEMENT_SET_NO":999,"REV_AT_EPOCH":699,"BSTAR":0.00015652967,"MEAN_MOTION_DOT":-4.0e-7,"MEAN_MOTION_DDOT":0},{"OBJECT_NAME":"DELTA 1 DEB","OBJECT_ID":"1973-086EX","EPOCH":"2026-03-09T22:33:00.832608","MEAN_MOTION":13.01560702,"ECCENTRICITY":0.02213384,"INCLINATION":101.7791,"RA_OF_ASC_NODE":226.4605,"ARG_OF_PERICENTER":59.1523,"MEAN_ANOMALY":66.4972,"EPHEMERIS_TYPE":0,"CLASSIFICATION_TYPE":"U","NORAD_CAT_ID":7186,"ELEMENT_SET_NO":999,"REV_AT_EPOCH":46548,"BSTAR":0.001491119,"MEAN_MOTION_DOT":4.64e-6,"MEAN_MOTION_DDOT":0}]
